48224,ONEWEB-0202,2021,109.55,148.0,+,87.9,Active,1,LEO,Russia,UK,Commercial,Communications,Soyuz,1 48224U 21031Q   23245.89984710  .00000215  00000+0  54485-3 0  9995,2 48224  87.9019 132.4237 0002929  70.3749 289.7697 13.14504887114588,13.14504887,0.0002929,LEO
48225,ONEWEB-0204,2021,109.55,148.0,+,87.9,Active,1,LEO,Russia,UK,Commercial,Communications,Soyuz,1 48225U 21031R   23245.93382273 -.00000148  00000+0 -43460-3 0  9995,2 48225  87.9024 132.4291 0001245  79.6376 280.4894 13.14500948114483,13.14500948,0.0001245,LEO
48226,ONEWEB-0205,2021,109.55,148.0,+,87.9,Active,1,LEO,Russia,UK,Commercial,Communications,Soyuz,1 48226U 21031S   23245.98654067  .00000230  00000+0  58697-3 0  9992,2 48226  87.9022 132.3878 0002053  70.1553 289.9797 13.14504385114512,13.14504385,0.0002053,LEO
48227,ONEWEB-0206,2021,109.55,148.0,+,87.9,Active,1,LEO,Russia,UK,Commercial,Communications,Soyuz,1 48227U 21031T   23245.73070132 -.00000046  00000+0 -15738-3 0  9997,2 48227  87.9019 132.4226 0001780  67.6488 292.4830 13.14501416114420,13.14501416,0.000178,LEO
48228,ONEWEB-0182,2021,109.55,148.0,+,87.89,Active,1,LEO,Russia,UK,Commercial,Communications,Soyuz,1 48228U 21031U   23245.72435010 -.00000143  00000+0 -41939-3 0  9997,2 48228  87.8888 132.4768 0001828  69.1365 290.9961 13.14505337114636,13.14505337,0.0001828,LEO
48229,ONEWEB-0186,2021,109.55,148.0,+,87.9,Active,1,LEO,Russia,UK,Commercial,Communications,Soyuz,1 48229U 21031V   23245.73703688  .00000081  00000+0  18319-3 0  9993,2 48229  87.9020 132.4112 0001969  72.7357 287.3988 13.14505794114586,13.14505794,0.0001969,LEO
48230,ONEWEB-0181,2021,109.55,148.0,+,87.9,Active,1,LEO,Russia,UK,Commercial,Communications,Soyuz,1 48230U 21031W   23245.94213995 -.00000139  00000+0 -40919-3 0  9992,2 48230  87.9025 132.4420 0002024  76.1908 283.9447 13.14504119114467,13.14504119,0.0002024,LEO
48231,ONEWEB-0188,2021,109.55,148.0,+,87.9,Active,1,LEO,Russia,UK,Commercial,Communications,Soyuz,1 48231U 21031X   23245.75395673  .00000279  00000+0  71707-3 0  9998,2 48231  87.9021 132.4789 0001847  71.6785 288.4546 13.14505092114345,13.14505092,0.0001847,LEO
